IRIDIUM 126             
1 42809U 17039G   24205.51003437 -.00000117  00000+0 -48971-4 0  9992
2 42809  86.3961 283.5156 0002224  98.3477 261.7971 14.34217446370522
IRIDIUM 124             
1 42810U 17039H   24205.46672736  .00000428  00000+0  12114-3 0  9994
2 42810  86.4487 220.2687 0002513  83.6750 276.4737 14.43282768375052
IRIDIUM 128             
1 42811U 17039J   24205.36122967  .00000834  00000+0  29063-3 0  9992
2 42811  86.3989 315.1105 0002539  94.4718 265.6768 14.34216061370535
IRIDIUM 121             
1 42812U 17039K   24205.45929514  .00000679  00000+0  23522-3 0  9997
2 42812  86.3956 283.5581 0002567 100.0602 260.0884 14.34216580370391
IRIDIUM 133             
1 42955U 17061A   24205.60225300  .00000270  00000+0  89433-4 0  9990
2 42955  86.3994 315.1102 0002233  98.7644 261.3805 14.34219048355360
IRIDIUM 100             
1 42956U 17061B   24205.38660569  .00000430  00000+0  14658-3 0  9990
2 42956  86.3992 315.1354 0002211  95.9413 264.2035 14.34218318355330
IRIDIUM 122             
1 42957U 17061C   24205.56419563  .00000283  00000+0  94027-4 0  9992
2 42957  86.3993 315.0595 0002272  98.0363 262.1090 14.34219440355361
